{
  "type": "FeatureCollection",
  "features": [
    {
      "type": "Feature",
      "properties": {
        "norad_id": 37562,
        "name": "IRIDIUM 33 DEB",
        "group": "iridium-33-debris",
        "lat": -72.91513506574395,
        "lon": 35.313049903251645,
        "alt_km": 729.169830296154,
        "timestamp": "2025-12-04T10:51:50.491094+00:00",
        "meta_object_name": "IRIDIUM 33 DEB",
        "meta_object_id": "1997-051XX",
        "meta_epoch": "2025-12-02T11:38:58.279200",
        "meta_mean_motion": 14.56310782,
        "meta_eccentricity": 0.00264774,
        "meta_inclination": 86.3757,
        "meta_ra_of_asc_node": 48.0711,
        "meta_arg_of_pericenter": 140.1139,
        "meta_mean_anomaly": 279.2058,
        "meta_ephemeris_type": 0,
        "meta_classification_type": "U",
        "meta_norad_cat_id": 37562,
        "meta_element_set_no": 999,
        "meta_rev_at_epoch": 86179,
        "meta_bstar": 0.0014715729,
        "meta_mean_motion_dot": 6.569e-05,
        "meta_mean_motion_ddot": 0,
        "tle_line1": "1 37562U 97051XX  25336.48539675  .00006569  00000+0  14716-2 0  9997",
        "tle_line2": "2 37562  86.3757  48.0711 0026477 140.1139 279.2058 14.56310782861798"
      },
      "geometry": {
        "type": "Point",
        "coordinates": [
          35.313049903251645,
          -72.91513506574395
        ]
      }
    },
    {
      "type": "Feature",
      "properties": {
        "norad_id": 37565,
        "name": "IRIDIUM 33 DEB",
        "group": "iridium-33-debris",
        "lat": -34.227684159281175,
        "lon": -164.3226476266012,
        "alt_km": 730.1938185185263,
        "timestamp": "2025-12-04T10:51:50.491104+00:00",
        "meta_object_name": "IRIDIUM 33 DEB",
        "meta_object_id": "1997-051YA",
        "meta_epoch": "2025-12-03T20:38:42.302976",
        "meta_mean_motion": 14.51459123,
        "meta_eccentricity": 0.0015186,
        "meta_inclination": 86.3502,
        "meta_ra_of_asc_node": 13.4465,
        "meta_arg_of_pericenter": 109.8434,
        "meta_mean_anomaly": 250.441,
        "meta_ephemeris_type": 0,
        "meta_classification_type": "U",
        "meta_norad_cat_id": 37565,
        "meta_element_set_no": 999,
        "meta_rev_at_epoch": 65708,
        "meta_bstar": 0.0010607,
        "meta_mean_motion_dot": 4.261e-05,
        "meta_mean_motion_ddot": 0,
        "tle_line1": "1 37565U 97051YA  25337.86021184  .00004261  00000+0  10607-2 0  9996",
        "tle_line2": "2 37565  86.3502  13.4465 0015186 109.8434 250.4410 14.51459123657082"
      },
      "geometry": {
        "type": "Point",
        "coordinates": [
          -164.3226476266012,
          -34.227684159281175
        ]
      }
    },
    {
      "type": "Feature",
      "properties": {
        "norad_id": 38017,
        "name": "IRIDIUM 33 DEB",
        "group": "iridium-33-debris",
        "lat": 22.659702069636932,
        "lon": 171.35319335893053,
        "alt_km": 750.5229511328034,
        "timestamp": "2025-12-04T10:51:50.491115+00:00",
        "meta_object_name": "IRIDIUM 33 DEB",
        "meta_object_id": "1997-051YD",
        "meta_epoch": "2025-12-01T06:29:11.103360",
        "meta_mean_motion": 14.48304289,
        "meta_eccentricity": 0.009214,
        "meta_inclination": 86.3439,
        "meta_ra_of_asc_node": 171.2047,
        "meta_arg_of_pericenter": 141.8586,
        "meta_mean_anomaly": 218.9187,
        "meta_ephemeris_type": 0,
        "meta_classification_type": "U",
        "meta_norad_cat_id": 38017,
        "meta_element_set_no": 999,
        "meta_rev_at_epoch": 61236,
        "meta_bstar": 0.0066574,
        "meta_mean_motion_dot": 0.00026341,
        "meta_mean_motion_ddot": 0,
        "tle_line1": "1 38017U 97051YD  25335.27026740  .00026341  00000+0  66574-2 0  9992",
        "tle_line2": "2 38017  86.3439 171.2047 0092140 141.8586 218.9187 14.48304289612362"
      },
      "geometry": {
        "type": "Point",
        "coordinates": [
          171.35319335893053,
          22.659702069636932
        ]
      }
    },
    {
      "type": "Feature",
      "properties": {
        "norad_id": 38022,
        "name": "IRIDIUM 33 DEB",
        "group": "iridium-33-debris",
        "lat": 29.799536403208776,
        "lon": 22.213795436633255,
        "alt_km": 730.0935295086701,
        "timestamp": "2025-12-04T10:51:50.491125+00:00",
        "meta_object_name": "IRIDIUM 33 DEB",
        "meta_object_id": "1997-051YJ",
        "meta_epoch": "2025-12-03T09:43:50.752992",
        "meta_mean_motion": 14.41155819,
        "meta_eccentricity": 0.00470517,
        "meta_inclination": 86.2701,
        "meta_ra_of_asc_node": 20.531,
        "meta_arg_of_pericenter": 80.0356,
        "meta_mean_anomaly": 280.615,
        "meta_ephemeris_type": 0,
        "meta_classification_type": "U",
        "meta_norad_cat_id": 38022,
        "meta_element_set_no": 999,
        "meta_rev_at_epoch": 69059,
        "meta_bstar": 0.0013840286,
        "meta_mean_motion_dot": 4.54e-05,
        "meta_mean_motion_ddot": 0,
        "tle_line1": "1 38022U 97051YJ  25337.40544853  .00004540  00000+0  13840-2 0  9990",
        "tle_line2": "2 38022  86.2701  20.5310 0047051  80.0356 280.6150 14.41155819690591"
      },
      "geometry": {
        "type": "Point",
        "coordinates": [
          22.213795436633255,
          29.799536403208776
        ]
      }
    },
    {
      "type": "Feature",
      "properties": {
        "norad_id": 38028,
        "name": "IRIDIUM 33 DEB",
        "group": "iridium-33-debris",
        "lat": 25.890063355231327,
        "lon": 5.659094464944877,
        "alt_km": 748.1491991636449,
        "timestamp": "2025-12-04T10:51:50.491135+00:00",
        "meta_object_name": "IRIDIUM 33 DEB",
        "meta_object_id": "1997-051YQ",
        "meta_epoch": "2025-12-02T08:55:29.085888",
        "meta_mean_motion": 14.46151271,
        "meta_eccentricity": 0.00294346,
        "meta_inclination": 86.325,
        "meta_ra_of_asc_node": 4.7758,
        "meta_arg_of_pericenter": 153.8613,
        "meta_mean_anomaly": 206.4083,
        "meta_ephemeris_type": 0,
        "meta_classification_type": "U",
        "meta_norad_cat_id": 38028,
        "meta_element_set_no": 999,
        "meta_rev_at_epoch": 65345,
        "meta_bstar": 0.00044678043,
        "meta_mean_motion_dot": 1.624e-05,
        "meta_mean_motion_ddot": 0,
        "tle_line1": "1 38028U 97051YQ  25336.37186442  .00001624  00000+0  44678-3 0  9991",
        "tle_line2": "2 38028  86.3250   4.7758 0029434 153.8613 206.4083 14.46151271653455"
      },
      "geometry": {
        "type": "Point",
        "coordinates": [
          5.659094464944877,
          25.890063355231327
        ]
      }
    },
    {
      "type": "Feature",
      "properties": {
        "norad_id": 38228,
        "name": "IRIDIUM 33 DEB",
        "group": "iridium-33-debris",
        "lat": 16.726225308353527,
        "lon": -129.1231200510154,
        "alt_km": 774.1966726934997,
        "timestamp": "2025-12-04T10:51:50.491145+00:00",
        "meta_object_name": "IRIDIUM 33 DEB",
        "meta_object_id": "1997-051ZC",
        "meta_epoch": "2025-12-03T12:31:25.156416",
        "meta_mean_motion": 14.27243277,
        "meta_eccentricity": 0.00633267,
        "meta_inclination": 86.2954,
        "meta_ra_of_asc_node": 52.388,
        "meta_arg_of_pericenter": 219.3785,
        "meta_mean_anomaly": 204.5522,
        "meta_ephemeris_type": 0,
        "meta_classification_type": "U",
        "meta_norad_cat_id": 38228,
        "meta_element_set_no": 999,
        "meta_rev_at_epoch": 84650,
        "meta_bstar": 0.00054665281,
        "meta_mean_motion_dot": 1.383e-05,
        "meta_mean_motion_ddot": 0,
        "tle_line1": "1 38228U 97051ZC  25337.52181894  .00001383  00000+0  54665-3 0  9996",
        "tle_line2": "2 38228  86.2954  52.3880 0063326 219.3785 204.5522 14.27243277846502"
      },
      "geometry": {
        "type": "Point",
        "coordinates": [
          -129.1231200510154,
          16.726225308353527
        ]
      }
    },
    {
      "type": "Feature",
      "properties": {
        "norad_id": 38241,
        "name": "IRIDIUM 33 DEB",
        "group": "iridium-33-debris",
        "lat": -16.107139007799763,
        "lon": -6.807693232842841,
        "alt_km": 715.8780149656977,
        "timestamp": "2025-12-04T10:51:50.491156+00:00",
        "meta_object_name": "IRIDIUM 33 DEB",
        "meta_object_id": "1997-051ZR",
        "meta_epoch": "2025-12-01T08:39:05.059872",
        "meta_mean_motion": 14.54752437,
        "meta_eccentricity": 0.00056988,
        "meta_inclination": 86.3235,
        "meta_ra_of_asc_node": 355.6193,
        "meta_arg_of_pericenter": 96.8352,
        "meta_mean_anomaly": 263.3504,
        "meta_ephemeris_type": 0,
        "meta_classification_type": "U",
        "meta_norad_cat_id": 38241,
        "meta_element_set_no": 999,
        "meta_rev_at_epoch": 60035,
        "meta_bstar": 0.00088099609,
        "meta_mean_motion_dot": 3.793e-05,
        "meta_mean_motion_ddot": 0,
        "tle_line1": "1 38241U 97051ZR  25335.36047523  .00003793  00000+0  88100-3 0  9999",
        "tle_line2": "2 38241  86.3235 355.6193 0005698  96.8352 263.3504 14.54752437600359"
      },
      "geometry": {
        "type": "Point",
        "coordinates": [
          -6.807693232842841,
          -16.107139007799763
        ]
      }
    }
  ]
}